<?xml version="1.0" encoding="UTF-8"?>
<osm version="0.6" generator="test-fixture">
  <node id="1" lat="30.0440" lon="31.2350"/>
  <node id="2" lat="30.0440" lon="31.2400"/>
  <node id="3" lat="30.0480" lon="31.2450"/>
  <node id="4" lat="30.0520" lon="31.2450"/>
  <node id="5" lat="30.0480" lon="31.2350"/>
  <way id="100">
    <nd ref="1"/><nd ref="2"/><nd ref="3"/>
    <tag k="highway" v="motorway"/>
    <tag k="name" v="Ring Road"/>
    <tag k="lanes" v="4"/>
    <tag k="maxspeed" v="100"/>
  </way>
  <way id="101">
    <nd ref="5"/><nd ref="3"/>
    <tag k="highway" v="primary"/>
    <tag k="name" v="Nasr St"/>
    <tag k="lanes" v="2"/>
  </way>
  <way id="102">
    <nd ref="3"/><nd ref="4"/>
    <tag k="highway" v="residential"/>
    <tag k="name" v="Side St"/>
    <tag k="oneway" v="yes"/>
  </way>
</osm>
